{
    "links": {
        "self": "http://www.neowsapp.com/rest/v1/neo/3773758?api_key=iIulBulltgU6a56xZRHN4H3l9WmuAYTsLGpBGhQ2"
    },
    "id": "3773758",
    "neo_reference_id": "3773758",
    "name": "(2017 GT4)",
    "designation": "2017 GT4",
    "nasa_jpl_url": "http://ssd.jpl.nasa.gov/sbdb.cgi?sstr=3773758",
    "absolute_magnitude_h": 26.7,
    "estimated_diameter": {
        "kilometers": {
            "estimated_diameter_min": 0.0121494041,
            "estimated_diameter_max": 0.0271668934
        },
        "meters": {
            "estimated_diameter_min": 12.14940408,
            "estimated_diameter_max": 27.1668934089
        },
        "miles": {
            "estimated_diameter_min": 0.0075492874,
            "estimated_diameter_max": 0.0168807197
        },
        "feet": {
            "estimated_diameter_min": 39.8602508817,
            "estimated_diameter_max": 89.1302305717
        }
    },
    "is_potentially_hazardous_asteroid": false,
    "close_approach_data": [
        {
            "close_approach_date": "2017-04-08",
            "close_approach_date_full": "2017-Apr-08 16:20",
            "epoch_date_close_approach": 1491668400000,
            "relative_velocity": {
                "kilometers_per_second": "9.2348944683",
                "kilometers_per_hour": "33245.6200858835",
                "miles_per_hour": "20657.5354361424"
            },
            "miss_distance": {
                "astronomical": "0.0082822786",
                "lunar": "3.2218063754",
                "kilometers": "1239011.237306582",
                "miles": "769885.8827795516"
            },
            "orbiting_body": "Moon"
        },
        {
            "close_approach_date": "2017-04-09",
            "close_approach_date_full": "2017-Apr-09 01:28",
            "epoch_date_close_approach": 1491701280000,
            "relative_velocity": {
                "kilometers_per_second": "9.2848825592",
                "kilometers_per_hour": "33425.5772129691",
                "miles_per_hour": "20769.3537965807"
            },
            "miss_distance": {
                "astronomical": "0.0089674452",
                "lunar": "3.4883361828",
                "kilometers": "1341510.701261724",
                "miles": "833576.0963268312"
            },
            "orbiting_body": "Earth"
        }
    ],
    "orbital_data": {
        "orbit_id": "3",
        "orbit_determination_date": "2017-04-10 12:06:18",
        "first_observation_date": "2017-04-03",
        "last_observation_date": "2017-04-07",
        "data_arc_in_days": 4,
        "observations_used": 37,
        "orbit_uncertainty": "8",
        "minimum_orbit_intersection": ".00797603",
        "jupiter_tisserand_invariant": "3.742",
        "epoch_osculation": "2457847.5",
        "eccentricity": ".5034289016395552",
        "semi_major_axis": "1.934034589739106",
        "inclination": "3.690405269778705",
        "ascending_node_longitude": "13.34330738103399",
        "orbital_period": "982.4145421525407",
        "perihelion_distance": ".9603856804938403",
        "perihelion_argument": "216.3153133759036",
        "aphelion_distance": "2.907683498984373",
        "perihelion_time": "2457876.918750608141",
        "mean_anomaly": "349.2196727913599",
        "mean_motion": ".3664440870462017",
        "equinox": "J2000",
        "orbit_class": {
            "orbit_class_type": "APO",
            "orbit_class_description": "Near-Earth asteroid orbits which cross the Earth’s orbit similar to that of 1862 Apollo",
            "orbit_class_range": "a (semi-major axis) > 1.0 AU; q (perihelion) < 1.017 AU"
        }
    },
    "is_sentry_object": false
}